NORAD_CAT_ID,OBJECT_NAME,OBJECT_TYPE,EPOCH,MEAN_MOTION,ECCENTRICITY,INCLINATION,RA_OF_ASC_NODE,ARG_OF_PERICENTER,MEAN_ANOMALY,BSTAR,MEAN_MOTION_DOT,MEAN_MOTION_DDOT,TLE_LINE0,TLE_LINE1,TLE_LINE2,SEMIMAJOR_AXIS,PERIOD,APOGEE,PERIGEE,DECAYED
51868.0,STARLINK-3578,PAYLOAD,2024-03-07 03:41:27,15.08825524,0.0001702,53.2185,57.6015,106.7833,253.3346,0.00029283,4.374e-05,0.0,0 STARLINK-3578,1 51868U 22022S   24067.15378488  .00004374  00000-0  29283-3 0  9994,2 51868  53.2185  57.6015 0001702 106.7833 253.3346 15.08825524112523,6917.925,95.438,540.967,538.612,0.0
51868.0,STARLINK-3578,PAYLOAD,2024-03-07 08:27:35,15.08843126,0.0001574,53.2185,56.7076,97.7058,262.4113,0.00017951,2.57e-05,0.0,0 STARLINK-3578,1 51868U 22022S   24067.35249720  .00002570  00000-0  17951-3 0  9997,2 51868  53.2185  56.7076 0001574  97.7058 262.4113 15.08843126112559,6917.871,95.437,540.825,538.647,0.0
51868.0,STARLINK-3578,PAYLOAD,2024-03-08 03:32:13,15.08837811,0.0001511,53.2186,53.1384,94.9187,265.1978,0.0001064,1.406e-05,0.0,0 STARLINK-3578,1 51868U 22022S   24068.14738412  .00001406  00000-0  10640-3 0  9991,2 51868  53.2186  53.1384 0001511  94.9187 265.1978 15.08837811112672,6917.887,95.438,540.797,538.707,0.0
51868.0,STARLINK-3578,PAYLOAD,2024-03-08 06:42:59,15.08845233,0.0001557,53.218,52.5443,97.6254,262.4915,8.439e-05,1.056e-05,0.0,0 STARLINK-3578,1 51868U 22022S   24068.27986013  .00001056  00000-0  84390-4 0  9992,2 51868  53.2180  52.5443 0001557  97.6254 262.4915 15.08845233112690,6917.864,95.437,540.807,538.652,0.0
51868.0,STARLINK-3578,PAYLOAD,2024-03-08 16:15:18,15.0884197,0.0001564,53.2189,50.759,95.2335,264.8836,4.2142e-05,3.83e-06,0.0,0 STARLINK-3578,1 51868U 22022S   24068.67730264  .00000383  00000-0  42142-4 0  9992,2 51868  53.2189  50.7590 0001564  95.2335 264.8836 15.08841970112753,6917.874,95.437,540.821,538.657,0.0
51868.0,STARLINK-3578,PAYLOAD,2024-03-09 08:09:09,15.08849651,0.0001602,53.2189,47.7842,96.1861,263.9314,6.4521e-05,7.39e-06,0.0,0 STARLINK-3578,1 51868U 22022S   24069.33969715  .00000739  00000-0  64521-4 0  9991,2 51868  53.2189  47.7842 0001602  96.1861 263.9314 15.08849651112852,6917.851,95.437,540.824,538.608,0.0
51868.0,STARLINK-3578,PAYLOAD,2024-03-09 16:06:05,15.08847485,0.0001618,53.2188,46.297,95.247,264.8706,3.903e-05,3.33e-06,0.0,0 STARLINK-3578,1 51868U 22022S   24069.67089745  .00000333  00000-0  39030-4 0  9991,2 51868  53.2188  46.2970 0001618  95.2470 264.8706 15.08847485112904,6917.858,95.437,540.842,538.603,0.0
51868.0,STARLINK-3578,PAYLOAD,2024-03-10 07:59:56,15.08836581,0.000179,53.2185,43.323,107.7721,252.3467,0.00042016,6.405e-05,0.0,0 STARLINK-3578,1 51868U 22022S   24070.33329374  .00006405  00000-0  42016-3 0  9994,2 51868  53.2185  43.3230 0001790 107.7721 252.3467 15.08836581113000,6917.891,95.438,540.994,538.518,0.0
51868.0,STARLINK-3578,PAYLOAD,2024-03-11 04:39:58,15.08839458,0.0001412,53.218,39.4583,98.0463,262.069,4.2569e-06,-2.2e-06,0.0,0 STARLINK-3578,1 51868U 22022S   24071.19442162 -.00000220  00000-0  42569-5 0  9995,2 51868  53.2180  39.4583 0001412  98.0463 262.0690 15.08839458113134,6917.882,95.438,540.724,538.77,0.0
51868.0,STARLINK-3578,PAYLOAD,2024-03-11 14:12:16,15.08839278,0.0001458,53.2184,37.6739,99.8429,260.2728,1.0252e-05,-1.25e-06,0.0,0 STARLINK-3578,1 51868U 22022S   24071.59186175 -.00000125  00000-0  10252-4 0  9995,2 51868  53.2184  37.6739 0001458  99.8429 260.2728 15.08839278113190,6917.883,95.438,540.756,538.739,0.0
51868.0,STARLINK-3578,PAYLOAD,2024-03-12 14:03:03,15.08844818,0.0001758,53.2197,33.2188,121.5411,238.5753,-3.1371e-05,-7.87e-06,0.0,0 STARLINK-3578,1 51868U 22022S   24072.58546015 -.00000787  00000-0 -31371-4 0  9998,2 51868  53.2197  33.2188 0001758 121.5411 238.5753 15.08844818113340,6917.866,95.437,540.947,538.515,0.0
51868.0,STARLINK-3578,PAYLOAD,2024-03-13 13:53:50,15.08842657,0.0001193,53.2175,28.7532,88.4364,271.6765,0.00014832,2.074e-05,0.0,0 STARLINK-3578,1 51868U 22022S   24073.57906065  .00002074  00000-0  14832-3 0  9994,2 51868  53.2175  28.7532 0001193  88.4364 271.6765 15.08842657113495,6917.872,95.437,540.563,538.912,0.0
51868.0,STARLINK-3578,PAYLOAD,2024-03-14 04:12:19,15.08838285,0.0001562,53.2195,26.0808,94.7756,265.3415,6.3318e-05,7.2e-06,0.0,0 STARLINK-3578,1 51868U 22022S   24074.17522624  .00000720  00000-0  63318-4 0  9996,2 51868  53.2195  26.0808 0001562  94.7756 265.3415 15.08838285113583,6917.886,95.438,540.831,538.67,0.0
51868.0,STARLINK-3578,PAYLOAD,2024-03-14 05:47:42,15.08839904,0.000156,53.219,25.7801,88.3386,271.7785,8.1381e-05,1.007e-05,0.0,0 STARLINK-3578,1 51868U 22022S   24074.24146551  .00001007  00000-0  81381-4 0  9994,2 51868  53.2190  25.7801 0001560  88.3386 271.7785 15.08839904113594,6917.881,95.438,540.825,538.666,0.0
51868.0,STARLINK-3578,PAYLOAD,2024-03-15 19:56:58,15.08837722,0.0001614,53.2183,18.6485,79.9467,280.1707,0.00012996,1.781e-05,0.0,0 STARLINK-3578,1 51868U 22022S   24075.83123125  .00001781  00000-0  12996-3 0  9996,2 51868  53.2183  18.6485 0001614  79.9467 280.1707 15.08837722113832,6917.887,95.438,540.869,538.636,0.0
51868.0,STARLINK-3578,PAYLOAD,2024-03-16 05:29:16,15.08845584,0.0001393,53.2182,16.8604,96.913,263.2021,0.00015814,2.23e-05,0.0,0 STARLINK-3578,1 51868U 22022S   24076.22866609  .00002230  00000-0  15814-3 0  9993,2 51868  53.2182  16.8604 0001393  96.9130 263.2021 15.08845584113896,6917.863,95.437,540.692,538.765,0.0
51868.0,STARLINK-3578,PAYLOAD,2024-03-17 05:20:03,15.08847584,0.0001758,53.2187,12.3989,119.8986,240.2181,0.00013895,1.924e-05,0.0,0 STARLINK-3578,1 51868U 22022S   24077.22226515  .00001924  00000-0  13895-3 0  9996,2 51868  53.2187  12.3989 0001758 119.8986 240.2181 15.08847584114049,6917.857,95.437,540.938,538.506,0.0
51868.0,STARLINK-3578,PAYLOAD,2024-03-17 19:38:32,15.08840049,0.0001794,53.2199,9.7204,112.2959,247.8224,0.00019759,2.858e-05,0.0,0 STARLINK-3578,1 51868U 22022S   24077.81842968  .00002858  00000-0  19759-3 0  9999,2 51868  53.2199   9.7204 0001794 112.2959 247.8224 15.08840049114139,6917.88,95.438,540.986,538.504,0.0
51868.0,STARLINK-3578,PAYLOAD,2024-03-18 05:10:50,15.08849392,0.0001668,53.2181,7.9385,112.6841,247.4328,0.00013231,1.819e-05,0.0,0 STARLINK-3578,1 51868U 22022S   24078.21586267  .00001819  00000-0  13231-3 0  9996,2 51868  53.2181   7.9385 0001668 112.6841 247.4328 15.08849392114191,6917.852,95.437,540.871,538.563,0.0
51868.0,STARLINK-3578,PAYLOAD,2024-03-18 22:40:05,15.08842818,0.0001654,53.218,4.6671,106.8781,253.2392,-3.6704e-05,-8.72e-06,0.0,0 STARLINK-3578,1 51868U 22022S   24078.94450529 -.00000872  00000-0 -36704-4 0  9998,2 51868  53.2180   4.6671 0001654 106.8781 253.2392 15.08842818114300,6917.872,95.437,540.881,538.593,0.0
51868.0,STARLINK-3578,PAYLOAD,2024-03-19 01:50:51,15.08843951,0.0001598,53.2198,4.0723,105.4611,254.6557,6.1962e-06,-1.89e-06,0.0,0 STARLINK-3578,1 51868U 22022S   24079.07698641 -.00000189  00000-0  61962-5 0  9997,2 51868  53.2198   4.0723 0001598 105.4611 254.6557 15.08843951114324,6917.868,95.437,540.839,538.628,0.0
51868.0,STARLINK-3578,PAYLOAD,2024-03-19 05:01:37,15.08847036,0.0001578,53.2196,3.4763,101.3431,258.7739,4.0539e-05,3.57e-06,0.0,0 STARLINK-3578,1 51868U 22022S   24079.20946378  .00000357  00000-0  40539-4 0  9997,2 51868  53.2196   3.4763 0001578 101.3431 258.7739 15.08847036114349,6917.859,95.437,540.816,538.632,0.0
51868.0,STARLINK-3578,PAYLOAD,2024-03-20 01:41:36,15.08866335,0.0001444,53.2195,359.6106,111.1997,248.915,0.00019654,2.844e-05,0.0,0 STARLINK-3578,1 51868U 22022S   24080.07056365  .00002844  00000-0  19654-3 0  9998,2 51868  53.2195 359.6106 0001444 111.1997 248.9150 15.08866335114478,6917.8,95.436,540.664,538.666,0.0
51868.0,STARLINK-3578,PAYLOAD,2024-03-20 04:52:22,15.08876039,0.0001228,53.2189,359.0129,116.758,243.3538,0.00023645,3.481e-05,0.0,0 STARLINK-3578,1 51868U 22022S   24080.20303422  .00003481  00000-0  23645-3 0  9995,2 51868  53.2189 359.0129 0001228 116.7580 243.3538 15.08876039114492,6917.77,95.435,540.485,538.786,0.0
51868.0,STARLINK-3578,PAYLOAD,2024-03-20 22:21:39,15.08831226,0.0001415,53.2197,355.7456,116.1868,243.9269,-5.2667e-05,-1.126e-05,0.0,0 STARLINK-3578,1 51868U 22022S   24080.93171172 -.00001126  00000-0 -52667-4 0  9993,2 51868  53.2197 355.7456 0001415 116.1868 243.9269 15.08831226114607,6917.907,95.438,540.751,538.793,0.0
51868.0,STARLINK-3578,PAYLOAD,2024-03-21 01:32:26,15.08831635,0.0001643,53.2198,355.1596,123.6847,236.4302,-5.2183e-05,-1.118e-05,0.0,0 STARLINK-3578,1 51868U 22022S   24081.06419235 -.00001118  00000-0 -52183-4 0  9997,2 51868  53.2198 355.1596 0001643 123.6847 236.4302 15.08831635114621,6917.906,95.438,540.908,538.634,0.0
51868.0,STARLINK-3578,PAYLOAD,2024-03-21 11:04:44,15.08836534,0.0001228,53.2181,353.3713,103.4884,256.6245,-0.00011911,-2.183e-05,0.0,0 STARLINK-3578,1 51868U 22022S   24081.46162287 -.00002183  00000-0 -11911-3 0  9999,2 51868  53.2181 353.3713 0001228 103.4884 256.6245 15.08836534114689,6917.891,95.438,540.606,538.906,0.0
51868.0,STARLINK-3578,PAYLOAD,2024-03-21 17:26:17,15.08829595,0.0001449,53.2198,352.1843,101.2101,258.9054,-8.8051e-05,-1.689e-05,0.0,0 STARLINK-3578,1 51868U 22022S   24081.72659020 -.00001689  00000-0 -88051-4 0  9994,2 51868  53.2198 352.1843 0001449 101.2101 258.9054 15.08829595114728,6917.912,95.438,540.78,538.775,0.0
51868.0,STARLINK-3578,PAYLOAD,2024-03-21 22:12:26,15.08834629,0.0001608,53.2198,351.2927,112.9757,247.1405,-0.00012475,-2.273e-05,0.0,0 STARLINK-3578,1 51868U 22022S   24081.92530879 -.00002273  00000-0 -12475-3 0  9992,2 51868  53.2198 351.2927 0001608 112.9757 247.1405 15.08834629114751,6917.897,95.438,540.874,538.649,0.0
51868.0,STARLINK-3578,PAYLOAD,2024-03-22 02:58:35,15.08850912,0.0001321,53.2185,350.3944,107.1683,252.9454,3.8037e-05,3.18e-06,0.0,0 STARLINK-3578,1 51868U 22022S   24082.12401840  .00000318  00000-0  38037-4 0  9999,2 51868  53.2185 350.3944 0001321 107.1683 252.9454 15.08850912114786,6917.847,95.437,540.626,538.798,0.0
